H1 CPF  1  DLR 2021 06 24 10  6752 technosat            
H2  1704205 6203    42829 2021 06 24 00 00 00 2021 07 01 00 00 00    60 1 1  0 0 0
H9
10 0 59391  79200.000000  0      -6509098.210       2293119.604       1021920.781
10 0 59391  79260.000000  0      -6402109.701       2350169.115       1464055.340
10 0 59391  79320.000000  0      -6267702.831       2396263.305       1899977.732
10 0 59391  79380.000000  0      -6106532.581       2430967.547       2327835.698
10 0 59391  79440.000000  0      -5919371.717       2453901.763       2745810.352
10 0 59391  79500.000000  0      -5707107.052       2464743.084       3152124.160
10 0 59391  79560.000000  0      -5470735.121       2463228.196       3545048.741
10 0 59391  79620.000000  0      -5211357.318       2449155.391       3922912.363
10 0 59391  79680.000000  0      -4930174.602       2422386.312       4284107.174
10 0 59391  79740.000000  0      -4628481.736       2382847.364       4627096.121
10 0 59391  79800.000000  0      -4307661.171       2330530.788       4950419.540
10 0 59391  79860.000000  0      -3969176.510       2265495.410       5252701.425
10 0 59391  79920.000000  0      -3614565.683       2187867.053       5532655.284
10 0 59391  79980.000000  0      -3245433.755       2097838.621       5789089.701
10 0 59391  80040.000000  0      -2863445.388       1995669.805       6020913.362
10 0 59391  80100.000000  0      -2470317.150       1881686.418       6227139.624
10 0 59391  80160.000000  0      -2067809.624       1756279.404       6406890.665
10 0 59391  80220.000000  0      -1657719.330       1619903.511       6559401.110
10 0 59391  80280.000000  0      -1241870.584       1473075.632       6684021.155
10 0 59391  80340.000000  0       -822107.326       1316372.831       6780219.203
10 0 59391  80400.000000  0       -400284.902       1150430.062       6847584.085
10 0 59391  80460.000000  0         21738.197        975937.571       6885826.801
10 0 59391  80520.000000  0        442108.580        793638.002       6894781.739
10 0 59391  80580.000000  0        858986.154        604323.239       6874407.401
10 0 59391  80640.000000  0       1270552.226        408830.965       6824786.630
10 0 59391  80700.000000  0       1675017.502        208040.948       6746126.346
10 0 59391  80760.000000  0       2070629.946          2871.086       6638756.800
10 0 59391  80820.000000  0       2455682.467       -205726.825       6503130.340
10 0 59391  80880.000000  0       2828520.451       -416771.521       6339819.641
10 0 59391  80940.000000  0       3187549.048       -629256.858       6149515.387
10 0 59391  81000.000000  0       3531240.188       -842156.609       5933023.514
10 0 59391  81060.000000  0       3858139.321      -1054429.470       5691261.907
10 0 59391  81120.000000  0       4166871.755      -1265024.174       5425256.599
10 0 59391  81180.000000  0       4456148.665      -1472884.715       5136137.545
10 0 59391  81240.000000  0       4724772.743      -1676955.656       4825133.929
10 0 59391  81300.000000  0       4971643.458      -1876187.482       4493569.018
10 0 59391  81360.000000  0       5195761.893      -2069542.026       4142854.555
10 0 59391  81420.000000  0       5396235.085      -2255997.904       3774484.687
10 0 59391  81480.000000  0       5572279.834      -2434555.914       3390029.473
10 0 59391  81540.000000  0       5723225.932      -2604244.374       2991128.040
10 0 59391  81600.000000  0       5848518.866      -2764124.351       2579481.448
10 0 59391  81660.000000  0       5947721.979      -2913294.765       2156845.247
10 0 59391  81720.000000  0       6020518.071      -3050897.345       1725021.823
10 0 59391  81780.000000  0       6066710.494      -3176121.467       1285852.416
10 0 59391  81840.000000  0       6086223.489      -3288208.716        841208.851
10 0 59391  81900.000000  0       6079101.885      -3386457.130        392985.307
10 0 59391  81960.000000  0       6045510.368      -3470225.245        -56910.002
10 0 59391  82020.000000  0       5985732.136      -3538935.879       -506563.345
10 0 59391  82080.000000  0       5900166.841      -3592079.529       -954064.003
10 0 59391  82140.000000  0       5789327.955      -3629217.368      -1397512.647
10 0 59391  82200.000000  0       5653839.655      -3649983.913      -1835029.604
10 0 59391  82260.000000  0       5494433.194      -3654089.372      -2264762.996
10 0 59391  82320.000000  0       5311942.786      -3641321.602      -2684896.727
10 0 59391  82380.000000  0       5107301.013      -3611547.652      -3093658.270
10 0 59391  82440.000000  0       4881533.764      -3564714.874      -3489326.167
10 0 59391  82500.000000  0       4635754.819      -3500851.707      -3870237.197
10 0 59391  82560.000000  0       4371160.083      -3420068.049      -4234793.291
10 0 59391  82620.000000  0       4089021.456      -3322555.173      -4581468.088
10 0 59391  82680.000000  0       3790680.447      -3208585.261      -4908813.062
10 0 59391  82740.000000  0       3477541.551      -3078510.559      -5215463.266
10 0 59391  82800.000000  0       3151065.465      -2932762.173      -5500142.621
10 0 59391  82860.000000  0       2812762.170      -2771848.549      -5761668.819
10 0 59391  82920.000000  0       2464183.909      -2596353.620      -5998957.834
10 0 59391  82980.000000  0       2106918.055      -2406934.605      -6211028.069
10 0 59391  83040.000000  0       1742579.868      -2204319.424      -6397004.078
10 0 59391  83100.000000  0       1372805.191      -1989303.764      -6556119.787
10 0 59391  83160.000000  0        999243.174      -1762747.850      -6687721.193
10 0 59391  83220.000000  0        623549.102      -1525573.021      -6791268.647
10 0 59391  83280.000000  0        247377.210      -1278758.004      -6866338.767
10 0 59391  83340.000000  0       -127626.386      -1023334.909      -6912625.830
10 0 59391  83400.000000  0       -499830.606       -760385.031      -6929942.786
10 0 59391  83460.000000  0       -867626.259       -491034.418      -6918221.918
10 0 59391  83520.000000  0      -1229432.811       -216449.170      -6877515.012
10 0 59391  83580.000000  0      -1583704.931         62169.451      -6807993.060
10 0 59391  83640.000000  0      -1928938.857        343590.081      -6709945.576
10 0 59391  83700.000000  0      -2263678.547        626556.493      -6583779.510
10 0 59391  83760.000000  0      -2586521.613        909793.011      -6430017.747
10 0 59391  83820.000000  0      -2896125.037       1192010.056      -6249297.185
10 0 59391  83880.000000  0      -3191210.653       1471909.817      -6042366.433
10 0 59391  83940.000000  0      -3470570.405       1748192.043      -5810083.103
10 0 59391  84000.000000  0      -3733071.343       2019559.950      -5553410.644
10 0 59391  84060.000000  0      -3977660.300       2284726.200      -5273414.728
10 0 59391  84120.000000  0      -4203368.239       2542418.947      -4971259.178
10 0 59391  84180.000000  0      -4409314.229       2791387.861      -4648201.468
10 0 59391  84240.000000  0      -4594709.023       3030410.120      -4305587.846
10 0 59391  84300.000000  0      -4758858.274       3258296.378      -3944848.103
10 0 59391  84360.000000  0      -4901165.377       3473896.697      -3567489.992
10 0 59391  84420.000000  0      -5021133.900       3676106.408      -3175093.181
10 0 59391  84480.000000  0      -5118369.530       3863871.795      -2769302.827
10 0 59391  84540.000000  0      -5192581.540       4036195.593      -2351822.858
10 0 59391  84600.000000  0      -5243583.837       4192142.307      -1924408.999
10 0 59391  84660.000000  0      -5271295.566       4330843.345      -1488861.426
10 0 59391  84720.000000  0      -5275741.143       4451501.828      -1047017.161
10 0 59391  84780.000000  0      -5257049.816       4553397.109       -600742.290
10 0 59391  84840.000000  0      -5215454.723       4635889.022       -151923.970
10 0 59391  84900.000000  0      -5151291.428       4698421.748        297537.737
10 0 59391  84960.000000  0      -5064995.946       4740527.215        745738.142
10 0 59391  85020.000000  0      -4957102.288       4761828.083       1190776.206
10 0 59391  85080.000000  0      -4828239.510       4762040.350       1630762.864
10 0 59391  85140.000000  0      -4679128.285       4740975.469       2063829.286
10 0 59391  85200.000000  0      -4510577.026       4698542.032       2488135.037
10 0 59391  85260.000000  0      -4323477.592       4634746.971       2901876.115
10 0 59391  85320.000000  0      -4118800.624       4549696.261       3303292.824
10 0 59391  85380.000000  0      -3897590.519       4443595.150       3690677.452
10 0 59391  85440.000000  0      -3660960.075       4316747.863       4062381.659
10 0 59391  85500.000000  0      -3410084.889       4169556.885       4416823.629
10 0 59391  85560.000000  0      -3146197.415       4002521.728       4752494.963
10 0 59391  85620.000000  0      -2870580.802       3816237.191       5067967.144
10 0 59391  85680.000000  0      -2584562.543       3611391.189       5361897.663
10 0 59391  85740.000000  0      -2289507.947       3388762.117       5633035.728
10 0 59391  85800.000000  0      -1986813.510       3149215.775       5880227.557
10 0 59391  85860.000000  0      -1677900.182       2893701.900       6102421.234
10 0 59391  85920.000000  0      -1364206.558       2623250.231       6298671.125
10 0 59391  85980.000000  0      -1047182.099       2338966.206       6468141.689
10 0 59391  86040.000000  0       -728280.476       2042026.426       6610110.928
10 0 59391  86100.000000  0       -408952.867       1733673.717       6723973.499
10 0 59391  86160.000000  0        -90641.261       1415211.807       6809243.237
10 0 59391  86220.000000  0        225228.110       1087999.754       6865555.137
10 0 59391  86280.000000  0        537251.203        753446.115       6892666.875
10 0 59391  86340.000000  0        844052.435        413002.862       6890459.845
99
